312P/NEAT,e,19.7599,144.6691,207.6764,3.470174,0.1524675,0.42753716,155.7954,07/14.0/2023,2000,g 16.0,4.0
# From MPEC 2021-S45
313P/Gibbs,e,10.9786,105.9446,254.8920,3.164202,0.1751087,0.23487824,207.2782,07/14.0/2023,2000,g 15.0,4.0
# From MPC105243
314P/Montani,e,3.9878,267.6088,213.8888,7.255417,0.0504325,0.41715325,124.5528,07/14.0/2023,2000,g  9.5,4.0
# From MPEC 2023-J29
315P/LONEOS,e,17.7333,68.7389,65.7606,4.939753,0.0897731,0.52117858,217.4695,07/14.0/2023,2000,g 11.0,4.0
# From MPC 92279
316P/LONEOS-Christensen,e,9.8366,246.1190,191.0372,4.396542,0.1069146,0.15661209,308.9254,07/14.0/2023,2000,g 13.5,4.0
# From MPEC 2020-C98
317P/WISE,e,11.9577,275.4739,334.8230,2.961966,0.1933455,0.57079868,197.4521,07/14.0/2023,2000,g 17.5,4.0
# From MPC102103
318P/McNaught-Hartley,e,17.8898,35.4992,313.3607,7.506875,0.0479198,0.67481072,135.0294,07/14.0/2023,2000,g  8.5,6.0
# From MPC 97499
319P/Catalina-McNaught,e,15.0956,111.3613,203.6546,3.564410,0.1464612,0.66647385,68.7860,07/14.0/2023,2000,g 15.0,4.0
# From MPC 96281
320P/McNaught,e,4.9039,295.9495,0.7822,3.094560,0.1810530,0.68507569,164.4480,07/14.0/2023,2000,g 20.5,4.0
# From MPC105243
321P/SOHO,e,20.0769,165.0176,172.7445,2.422977,0.2613245,0.98106650,0.0000,10/26.6089/2023,2000,g 20.0,4.0
# From MPC102103
322P/SOHO,e,11.4643,351.4871,56.9274,2.507383,0.2482408,0.97998097,0.0000,08/21.0861/2023,2000,g 19.0,4.0
# From MPEC 2016-Y36
323P/SOHO,e,5.3124,324.4169,353.0239,2.583335,0.2373739,0.98471500,0.0000,03/14.4534/2025,2000,g 20.0,4.0
# From MPEC 2021-W31
324P/LaSagra,e,21.4018,270.5837,57.5473,3.094873,0.1810255,0.15352101,144.8277,07/14.0/2023,2000,g 13.0,4.0
# From MPEC 2022-TA0
325P/Yang-Gao,e,16.7149,257.3417,344.0987,3.531413,0.1485187,0.59342678,70.0466,07/14.0/2023,2000,g 14.0,4.0
# From MPEC 2023-N16
326P/Hill,e,2.4711,99.8076,278.6475,4.064097,0.1202979,0.31850643,339.6113,07/14.0/2023,2000,g 13.5,4.0
# From MPEC 2023-B57
327P/VanNess,e,36.2504,173.9839,185.0199,3.561761,0.1466247,0.56310378,46.1351,07/14.0/2023,2000,g 16.0,4.0
# From MPC109148
328P/LONEOS-Tucker,e,17.6723,341.6174,30.6143,4.189666,0.1149304,0.55273812,316.3354,07/14.0/2023,2000,g 14.5,4.0
# From MPC101101
329P/LINEAR-Catalina,e,21.7140,87.6536,343.5619,5.187143,0.0834280,0.67844671,231.9727,07/14.0/2023,2000,g 13.5,4.0
# From MPEC 2023-J29
330P/Catalina,e,15.7169,293.0801,188.8325,6.620763,0.0578551,0.54925478,145.3787,07/14.0/2023,2000,g 12.0,4.0
# From MPEC 2023-KD6
331P/Gibbs,e,9.7400,216.7520,184.6497,3.005065,0.1892009,0.04135720,191.5884,07/14.0/2023,2000,g 12.0,4.0
# From MPEC 2016-K18
332P/Ikeya-Murakami,e,9.3805,3.7814,152.2906,3.087378,0.1816851,0.48929242,126.2283,07/14.0/2023,2000,g 18.0,4.0
# From MPEC 2016-EI8
332P-B/Ikeya-Murakami,e,9.3805,3.8028,152.3711,3.082329,0.1821317,0.48970701,359.9699,03/17.0/2016,2000,g 19.0,4.0
# From MPEC 2016-K18
332P-C/Ikeya-Murakami,e,9.3795,3.7819,152.2819,3.087344,0.1816881,0.48929794,126.2446,07/14.0/2023,2000,g 16.5,4.0
# From MPEC 2016-ED0
332P-D/Ikeya-Murakami,e,9.3761,3.7923,152.4393,3.081138,0.1822373,0.48977814,359.9486,03/17.0/2016,2000,g 19.0,4.0
# From MPEC 2016-ED0
332P-E/Ikeya-Murakami,e,9.3774,3.8228,152.2825,3.079877,0.1823493,0.48922008,359.9889,03/17.0/2016,2000,g 21.0,4.0
# From MPEC 2016-ED0
332P-F/Ikeya-Murakami,e,9.5293,3.4757,152.8203,3.163214,0.1751908,0.49918860,359.8501,03/17.0/2016,2000,g 21.0,4.0
# From MPEC 2016-ED0
332P-G/Ikeya-Murakami,e,9.2523,3.6955,154.4000,3.050519,0.1849880,0.49200362,359.9006,03/19.0/2016,2000,g 19.0,4.0
# From MPC100285
332P-H/Ikeya-Murakami,e,9.3800,3.7816,152.2825,3.087527,0.1816720,0.48933344,126.1682,07/14.0/2023,2000,g 19.0,4.0
# From MPEC 2016-ED0
332P-I/Ikeya-Murakami,e,9.3791,3.8048,152.3297,3.081767,0.1821815,0.48955490,359.9360,03/17.0/2016,2000,g 20.5,2.0
# From MPEC 2016-EI8
332P-J/Ikeya-Murakami,e,9.4296,3.6729,152.7712,3.115165,0.1792596,0.49429435,359.8613,03/17.0/2016,2000,g 20.5,2.0
# From MPEC 2020-L06
333P/LINEAR,e,132.0167,115.6808,25.9903,4.221571,0.1136300,0.73635370,302.7005,07/14.0/2023,2000,g 15.0,4.0
# From MPEC 2023-J29
334P/NEAT,e,20.3865,90.5435,90.0702,6.833802,0.0551709,0.35065919,123.1302,07/14.0/2023,2000,g 10.5,4.0
# From MPEC 2023-M14
335P/Gibbs,e,7.2928,330.8385,162.3018,3.578321,0.1456080,0.54628519,48.9231,07/14.0/2023,2000,g 16.8,4.0
# From MPC105244
336P/McNaught,e,17.8238,298.2761,308.6472,5.036921,0.0871879,0.44382133,205.5336,07/14.0/2023,2000,g 13.5,4.0
# From MPEC 2023-J29
337P/WISE,e,15.3697,105.9465,161.2399,3.290796,0.1651021,0.49723988,62.3345,07/14.0/2023,2000,g 17.0,4.0
# From MPEC 2023-J29
338P/McNaught,e,25.3861,9.7971,4.5349,3.892737,0.1283280,0.41215065,310.4790,07/14.0/2023,2000,g 12.0,4.0
# From MPC101101
339P/Gibbs,e,5.7332,172.7230,27.4630,3.700830,0.1384380,0.63568336,353.3621,07/14.0/2023,2000,g 17.0,4.0
# From MPC133426
340P/Boattini,e,2.0781,291.6960,36.0032,4.249683,0.1125043,0.28060621,272.5962,07/14.0/2023,2000,g 14.3,4.0
# From MPEC 2023-J29
341P/Gibbs,e,3.7971,29.9677,312.2928,4.289638,0.1109361,0.41565588,288.0678,07/14.0/2023,2000,g 12.5,4.0
# From MPC101101
342P/SOHO,e,11.6665,27.7073,73.2501,3.041177,0.1858410,0.98283762,0.0000,10/19.2907/2021,2000,g  9.0,4.0
# From MPEC 2023-J29
343P/NEAT-LONEOS,e,5.5933,257.0880,137.5233,5.457655,0.0773028,0.58526669,181.9704,07/14.0/2023,2000,g 14.0,4.0
# From MPEC 2023-J29
344P/Read,e,3.4965,273.1090,140.4853,4.859797,0.0919977,0.42348720,224.6387,07/14.0/2023,2000,g 13.0,4.0
# From MPEC 2022-K19
345P/LINEAR,e,2.7275,154.5119,196.6653,4.033477,0.1216703,0.22144904,309.6870,07/14.0/2023,2000,g 12.0,4.0
# From MPEC 2022-K19
346P/Catalina,e,22.2091,102.4518,335.9763,4.472337,0.1042083,0.50351257,243.8751,07/14.0/2023,2000,g 14.0,4.0
# From MPEC 2022-K19
347P/PANSTARRS,e,11.7537,261.0134,98.4323,3.605873,0.1439423,0.38641704,359.1293,07/14.0/2023,2000,g 15.0,4.0
# From MPEC 2022-ED3
348P/PANSTARRS,e,17.7365,312.9298,135.6982,3.151869,0.1761375,0.30717854,90.9459,07/14.0/2023,2000,g 14.0,4.0
# From MPEC 2022-K19
349P/Lemmon,e,5.4894,331.7570,255.8413,3.577253,0.1456732,0.29842895,313.6292,07/14.0/2023,2000,g 14.0,4.0
# From MPC111775
350P/McNaught,e,7.3652,65.2948,139.7703,4.082936,0.1194662,0.09388813,243.3664,07/14.0/2023,2000,g 14.0,4.0
# From MPC105244
351P/Wiegert-PANSTARRS,e,12.7775,283.4096,352.6511,4.439866,0.1053536,0.29494837,294.5119,07/14.0/2023,2000,g 12.5,4.0
# From MPEC 2023-J29
352P/Skiff,e,21.0148,27.9988,309.3841,6.648787,0.0574898,0.61752672,127.1951,07/14.0/2023,2000,g 13.2,4.0
# From MPEC 2020-AA5
353P/McNaught,e,28.4079,121.5083,230.5054,4.170536,0.1157221,0.47027839,234.6884,07/14.0/2023,2000,g 14.5,4.0
# From MPC105545
354P/LINEAR,e,5.2506,320.0813,132.6681,2.290342,0.2843502,0.12476062,333.8922,07/14.0/2023,2000,g 15.5,4.0
# From MPEC 2023-CD7
355P/LINEAR-NEAT,e,11.0471,51.4342,336.3279,3.468816,0.1525570,0.50791802,319.9671,07/14.0/2023,2000,g 15.5,2.0
# From MPEC 2022-F14
356P/WISE,e,9.6372,160.7862,226.0966,4.155975,0.1163308,0.35602772,236.2594,07/14.0/2023,2000,g 14.0,4.0
# From MPC114609
357P/Hill,e,6.3166,44.5583,1.4262,4.457192,0.1047399,0.43597418,195.7912,07/14.0/2023,2000,g 15.5,4.0
# From MPEC 2020-HN5
358P/PANSTARRS,e,11.0597,85.6947,299.7419,3.147929,0.1764683,0.23925856,338.8245,07/14.0/2023,2000,g 18.0,4.0
# From MPC110086
359P/LONEOS,e,10.2638,149.7452,200.3046,4.640530,0.0985945,0.32395806,212.0019,07/14.0/2023,2000,g 13.5,4.0
# From MPC108599
360P/WISE,e,24.1101,2.1880,354.2284,3.698980,0.1385419,0.49928790,297.9806,07/14.0/2023,2000,g 19.5,6.0
# From MPEC 2023-CD7
361P/Spacewatch,e,13.9037,203.2599,219.0153,4.934549,0.0899152,0.43927703,165.0387,07/14.0/2023,2000,g 12.0,4.0
# From MPEC 2017-V13
362P/,e,15.5569,192.5452,53.5495,3.972760,0.1244703,0.27869444,313.6440,07/14.0/2023,2000,g 12.9,2.0
# From MPC114609
363P/Lemmon,e,5.3993,146.8552,340.8306,3.571885,0.1460017,0.51935457,288.7146,07/14.0/2023,2000,g 17.5,4.0
# From MPEC 2023-N16
364P/PANSTARRS,e,12.1376,46.1479,212.0217,2.879337,0.2017276,0.72170839,12.3016,07/14.0/2023,2000,g 17.0,2.0
# From MPC111775
365P/PANSTARRS,e,9.8447,86.3064,67.7740,3.155843,0.1758049,0.58129371,344.6373,07/14.0/2023,2000,g 17.0,4.0
# From MPC114610
366P/Spacewatch,e,8.8568,70.7626,153.0186,3.497409,0.1506900,0.34815415,274.5359,07/14.0/2023,2000,g 15.0,4.0
# From MPC112395
367P/Catalina,e,8.4591,58.7162,172.7514,3.508581,0.1499708,0.27974036,277.8191,07/14.0/2023,2000,g 17.5,2.0
# From MPC114610
368P/NEAT,e,15.4839,257.8207,118.9683,5.530672,0.0757770,0.62666168,133.5267,07/14.0/2023,2000,g 14.0,4.0
# From MPC114610
369P/Hill,e,10.3253,47.2931,13.1651,4.380914,0.1074873,0.55563808,186.0441,07/14.0/2023,2000,g 15.0,4.0
# From MPEC 2021-F20
370P/NEAT,e,19.4294,55.0628,356.7268,6.435534,0.0603708,0.61547260,112.2015,07/14.0/2023,2000,g 13.0,4.0
# From MPC114610
371P/LINEAR-Skiff,e,17.3881,67.2330,308.5879,4.180593,0.1153047,0.47708248,200.7743,07/14.0/2023,2000,g 16.0,4.0
# From MPEC 2020-K19
372P/McNaught,e,9.5045,325.8126,27.7005,4.509011,0.1029395,0.15227131,177.4073,07/14.0/2023,2000,g 13.5,4.0
# From MPEC 2021-F20
373P/Rinner,e,13.7708,231.9674,221.0030,3.800097,0.1330491,0.39317405,207.0922,07/14.0/2023,2000,g 14.5,4.0
# From MPC114610
374P/Larson,e,10.7656,7.9104,51.4650,4.971243,0.0889215,0.46358030,146.1440,07/14.0/2023,2000,g 14.0,4.0
# From MPEC 2021-F20
375P/Hill,e,17.3625,359.9319,119.3620,5.548705,0.0754079,0.65923856,125.6118,07/14.0/2023,2000,g 16.0,4.0
# From MPEC 2022-K19
376P/LONEOS,e,1.1677,313.1472,285.2473,5.760971,0.0712788,0.51509828,99.3597,07/14.0/2023,2000,g 12.5,4.0
# From MPEC 2022-N37
377P/Scotti,e,9.0241,226.0622,354.9756,6.701537,0.0568123,0.25119466,62.3891,07/14.0/2023,2000,g  9.5,4.0
# From MPEC 2023-D41
378P/McNaught,e,19.0856,93.9719,193.5334,6.312903,0.0621385,0.46670828,62.2794,07/14.0/2023,2000,g 12.0,4.0
# From MPC115889
379P/Spacewatch,e,12.4454,183.8067,30.6271,3.501039,0.1504557,0.34664800,216.2075,07/14.0/2023,2000,g 15.0,4.0
# From MPEC 2023-C45
380P/PANSTARRS,e,8.0314,129.6830,87.1954,4.409286,0.1064515,0.34256974,162.2096,07/14.0/2023,2000,g 12.5,4.0
